{
"type": "FeatureCollection",
"name": "bus_stops",
"crs": { "type": "name", "properties": { "name": "urn:ogc:def:crs:OGC:1.3:CRS84" } },
"features": [
{ "type": "Feature", "properties": { "element": "node", "id": 392974007, "stop_name": "Craig St at Park Plaza", "sheltered": false, "trips_7d": 1290.0, "seg_id": "bayard-street-1067-08", "snap_m": 1.0 }, "geometry": { "type": "Point", "coordinates": [ -79.949462, 40.447876899999983 ] } },
{ "type": "Feature", "properties": { "element": "node", "id": 392974201, "stop_name": "Craig St at Fifth Ave", "sheltered": true, "trips_7d": 1287.0, "seg_id": "north-craig-street-0986-04", "snap_m": 0.7 }, "geometry": { "type": "Point", "coordinates": [ -79.9492202, 40.4471907 ] } },
{ "type": "Feature", "properties": { "element": "node", "id": 1356087410, "stop_name": "Fifth Ave at University Pl", "sheltered": false, "trips_7d": null, "seg_id": "bigelow-boulevard-0637-09", "snap_m": 1.1 }, "geometry": { "type": "Point", "coordinates": [ -79.9547056, 40.444595 ] } },
{ "type": "Feature", "properties": { "element": "node", "id": 1778609167, "stop_name": "Fifth Avenue at Morewood Avenue", "sheltered": false, "trips_7d": 901.0, "seg_id": "fifth-avenue-1158-06", "snap_m": 0.6 }, "geometry": { "type": "Point", "coordinates": [ -79.9425269, 40.4473492 ] } },
{ "type": "Feature", "properties": { "element": "node", "id": 1784102246, "stop_name": null, "sheltered": false, "trips_7d": 1155.0, "seg_id": "centre-avenue-1046-00", "snap_m": 0.3 }, "geometry": { "type": "Point", "coordinates": [ -79.9445094, 40.4540719 ] } },
{ "type": "Feature", "properties": { "element": "node", "id": 1784102247, "stop_name": null, "sheltered": false, "trips_7d": null, "seg_id": "centre-avenue-1397-00", "snap_m": 0.9 }, "geometry": { "type": "Point", "coordinates": [ -79.9435004, 40.4543712 ] } },
{ "type": "Feature", "properties": { "element": "node", "id": 1785427182, "stop_name": null, "sheltered": false, "trips_7d": 285.0, "seg_id": "amberson-avenue-1540-00", "snap_m": 2.6 }, "geometry": { "type": "Point", "coordinates": [ -79.940869, 40.4513925 ] } },
{ "type": "Feature", "properties": { "element": "node", "id": 1786772014, "stop_name": "Neville Ramp + Centre", "sheltered": true, "trips_7d": 235.0, "seg_id": "centre-avenue-1043-00", "snap_m": 8.8 }, "geometry": { "type": "Point", "coordinates": [ -79.9497785, 40.4527311 ] } },
{ "type": "Feature", "properties": { "element": "node", "id": 1786772015, "stop_name": "Neville Ramp + Centre FS", "sheltered": true, "trips_7d": 235.0, "seg_id": "centre-avenue-1043-00", "snap_m": 11.3 }, "geometry": { "type": "Point", "coordinates": [ -79.9496409, 40.4527907 ] } },
{ "type": "Feature", "properties": { "element": "node", "id": 1812433922, "stop_name": "Centre Ave + Millvale", "sheltered": false, "trips_7d": 1155.0, "seg_id": "centre-avenue-1046-02", "snap_m": 0.5 }, "geometry": { "type": "Point", "coordinates": [ -79.9475101, 40.453174 ] } },
{ "type": "Feature", "properties": { "element": "node", "id": 1812433927, "stop_name": "Centre Ave + Millvale", "sheltered": false, "trips_7d": 1155.0, "seg_id": "bayard-street-1121-02", "snap_m": 1.9 }, "geometry": { "type": "Point", "coordinates": [ -79.9472252, 40.4533931 ] } },
{ "type": "Feature", "properties": { "element": "node", "id": 1812433930, "stop_name": "Millvale Ave + Centre", "sheltered": true, "trips_7d": 331.0, "seg_id": "south-millvale-avenue-1218-00", "snap_m": 0.1 }, "geometry": { "type": "Point", "coordinates": [ -79.9474991, 40.4533992 ] } },
{ "type": "Feature", "properties": { "element": "node", "id": 1815342336, "stop_name": null, "sheltered": true, "trips_7d": 370.0, "seg_id": "north-dithridge-street-0826-02", "snap_m": 2.7 }, "geometry": { "type": "Point", "coordinates": [ -79.9533924, 40.4513807 ] } },
{ "type": "Feature", "properties": { "element": "node", "id": 1815342341, "stop_name": null, "sheltered": false, "trips_7d": 370.0, "seg_id": "centre-avenue-0724-01", "snap_m": 0.4 }, "geometry": { "type": "Point", "coordinates": [ -79.9532185, 40.4515984 ] } },
{ "type": "Feature", "properties": { "element": "node", "id": 1815342345, "stop_name": "Centre Ave + Craig St", "sheltered": true, "trips_7d": 370.0, "seg_id": "north-dithridge-street-0847-06", "snap_m": 0.0 }, "geometry": { "type": "Point", "coordinates": [ -79.9521405, 40.4517787 ] } },
{ "type": "Feature", "properties": { "element": "node", "id": 1815342348, "stop_name": "Centre Ave + Melwood Ave", "sheltered": false, "trips_7d": 1489.0, "seg_id": "centre-avenue-0948-00", "snap_m": 0.5 }, "geometry": { "type": "Point", "coordinates": [ -79.9509855, 40.4521293 ] } },
{ "type": "Feature", "properties": { "element": "node", "id": 1815342352, "stop_name": "Centre Ave + Neville St", "sheltered": false, "trips_7d": 1489.0, "seg_id": "centre-avenue-1046-04", "snap_m": 0.1 }, "geometry": { "type": "Point", "coordinates": [ -79.9497825, 40.4524813 ] } },
{ "type": "Feature", "properties": { "element": "node", "id": 1824542801, "stop_name": null, "sheltered": false, "trips_7d": null, "seg_id": "forbes-avenue-1162-07", "snap_m": 0.6 }, "geometry": { "type": "Point", "coordinates": [ -79.9487572, 40.4457668 ] } },
{ "type": "Feature", "properties": { "element": "node", "id": 1835579476, "stop_name": "Center Ave + Craig St NS", "sheltered": false, "trips_7d": 370.0, "seg_id": "centre-avenue-0724-03", "snap_m": 1.1 }, "geometry": { "type": "Point", "coordinates": [ -79.9517076, 40.4520392 ] } },
{ "type": "Feature", "properties": { "element": "node", "id": 1835929650, "stop_name": null, "sheltered": false, "trips_7d": 285.0, "seg_id": "ellsworth-avenue-1372-06", "snap_m": 0.0 }, "geometry": { "type": "Point", "coordinates": [ -79.9410404, 40.4512237 ] } },
{ "type": "Feature", "properties": { "element": "node", "id": 1838801466, "stop_name": null, "sheltered": true, "trips_7d": 1155.0, "seg_id": "morewood-avenue-1393-00", "snap_m": 7.1 }, "geometry": { "type": "Point", "coordinates": [ -79.9443186, 40.454249599999983 ] } },
{ "type": "Feature", "properties": { "element": "node", "id": 1892471692, "stop_name": null, "sheltered": false, "trips_7d": 285.0, "seg_id": "ellsworth-avenue-1372-05", "snap_m": 0.9 }, "geometry": { "type": "Point", "coordinates": [ -79.9431305, 40.4508013 ] } },
{ "type": "Feature", "properties": { "element": "node", "id": 2634336032, "stop_name": "Centre Ave + Neville St", "sheltered": false, "trips_7d": 1486.0, "seg_id": "bayard-street-1121-04", "snap_m": 0.1 }, "geometry": { "type": "Point", "coordinates": [ -79.9494963, 40.4527227 ] } },
{ "type": "Feature", "properties": { "element": "node", "id": 3224418048, "stop_name": "Forbes Ave at Morewood Ave (Carnegie Mellon)", "sheltered": true, "trips_7d": 2200.0, "seg_id": "forbes-avenue-1383-00", "snap_m": 0.0 }, "geometry": { "type": "Point", "coordinates": [ -79.9436301, 40.4447575 ] } },
{ "type": "Feature", "properties": { "element": "node", "id": 3652076321, "stop_name": "Forbes Ave opposite Morewood Avenue (Carnegie Mellon)", "sheltered": true, "trips_7d": 1794.0, "seg_id": "forbes-avenue-1305-02", "snap_m": 0.0 }, "geometry": { "type": "Point", "coordinates": [ -79.9424875, 40.4444415 ] } },
{ "type": "Feature", "properties": { "element": "node", "id": 4301448586, "stop_name": null, "sheltered": false, "trips_7d": 157.0, "seg_id": "south-millvale-avenue-1227-00", "snap_m": 1.9 }, "geometry": { "type": "Point", "coordinates": [ -79.9475818, 40.4544642 ] } },
{ "type": "Feature", "properties": { "element": "node", "id": 4301448587, "stop_name": "Forbes Ave opposite Craig St", "sheltered": true, "trips_7d": 2064.0, "seg_id": "forbes-avenue-0843-07", "snap_m": 0.0 }, "geometry": { "type": "Point", "coordinates": [ -79.9488859, 40.4443029 ] } },
{ "type": "Feature", "properties": { "element": "node", "id": 4301448588, "stop_name": "Bellefield Avenue at Fifth Avenue", "sheltered": true, "trips_7d": 2711.0, "seg_id": "south-bellefield-avenue-0816-00", "snap_m": 1.2 }, "geometry": { "type": "Point", "coordinates": [ -79.9517466, 40.446331 ] } },
{ "type": "Feature", "properties": { "element": "node", "id": 4301449475, "stop_name": null, "sheltered": false, "trips_7d": 331.0, "seg_id": "baum-boulevard-0823-00", "snap_m": 4.4 }, "geometry": { "type": "Point", "coordinates": [ -79.9477752, 40.4544722 ] } },
{ "type": "Feature", "properties": { "element": "node", "id": 4301449476, "stop_name": null, "sheltered": false, "trips_7d": null, "seg_id": "winthrop-street-1078-01", "snap_m": 1.9 }, "geometry": { "type": "Point", "coordinates": [ -79.9488971, 40.4457305 ] } },
{ "type": "Feature", "properties": { "element": "node", "id": 4301449477, "stop_name": "Forbes Ave at Dithridge St", "sheltered": false, "trips_7d": 2200.0, "seg_id": "forbes-avenue-1095-00", "snap_m": 0.1 }, "geometry": { "type": "Point", "coordinates": [ -79.950048, 40.4441944 ] } },
{ "type": "Feature", "properties": { "element": "node", "id": 4301449478, "stop_name": "Fifth Avenue at Desoto Street", "sheltered": false, "trips_7d": null, "seg_id": "desoto-street-0444-02", "snap_m": 1.3 }, "geometry": { "type": "Point", "coordinates": [ -79.9578283, 40.442372099999986 ] } },
{ "type": "Feature", "properties": { "element": "node", "id": 4301449479, "stop_name": "Fifth Ave at Chesterfield Rd", "sheltered": true, "trips_7d": 5157.0, "seg_id": "darragh-street-0246-05", "snap_m": 0.8 }, "geometry": { "type": "Point", "coordinates": [ -79.9617397, 40.439468 ] } },
{ "type": "Feature", "properties": { "element": "node", "id": 4301449481, "stop_name": "Forbes Ave at Craft Ave", "sheltered": true, "trips_7d": 5034.0, "seg_id": "forbes-avenue-0302-01", "snap_m": 2.3 }, "geometry": { "type": "Point", "coordinates": [ -79.9628747, 40.4372175 ] } },
{ "type": "Feature", "properties": { "element": "node", "id": 4301449489, "stop_name": "Fifth Ave at Atwood Station", "sheltered": true, "trips_7d": 4656.0, "seg_id": "terrace-street-0311-05", "snap_m": 1.3 }, "geometry": { "type": "Point", "coordinates": [ -79.9587956, 40.4416971 ] } },
{ "type": "Feature", "properties": { "element": "node", "id": 4301449490, "stop_name": "Fifth Ave at Craft Ave (Carlow University)", "sheltered": false, "trips_7d": 4630.0, "seg_id": "robinson-street-0145-09", "snap_m": 0.0 }, "geometry": { "type": "Point", "coordinates": [ -79.9638177, 40.4379784 ] } },
{ "type": "Feature", "properties": { "element": "node", "id": 4301449491, "stop_name": "Craft Avenue past Fifth (Dialysis Center)", "sheltered": true, "trips_7d": 292.0, "seg_id": "fifth-avenue-0178-01", "snap_m": 0.9 }, "geometry": { "type": "Point", "coordinates": [ -79.9637435, 40.4375407 ] } },
{ "type": "Feature", "properties": { "element": "node", "id": 4301449492, "stop_name": null, "sheltered": false, "trips_7d": 292.0, "seg_id": "craft-avenue-0224-02", "snap_m": 0.4 }, "geometry": { "type": "Point", "coordinates": [ -79.9622956, 40.4363817 ] } },
{ "type": "Feature", "properties": { "element": "node", "id": 4306208120, "stop_name": "Fifth Avenue at Bellefield Avenue", "sheltered": false, "trips_7d": 2711.0, "seg_id": "fifth-avenue-0750-04", "snap_m": 0.6 }, "geometry": { "type": "Point", "coordinates": [ -79.952016, 40.4463015 ] } },
{ "type": "Feature", "properties": { "element": "node", "id": 4306208237, "stop_name": "Fifth Avenue at Bellefield Avenue", "sheltered": false, "trips_7d": 2577.0, "seg_id": "north-dithridge-street-0899-05", "snap_m": 2.0 }, "geometry": { "type": "Point", "coordinates": [ -79.951644, 40.446752 ] } },
{ "type": "Feature", "properties": { "element": "node", "id": 4378685541, "stop_name": "Fifth Ave at Tennyson Ave", "sheltered": true, "trips_7d": 5157.0, "seg_id": "bigelow-boulevard-0637-02", "snap_m": 0.6 }, "geometry": { "type": "Point", "coordinates": [ -79.953018, 40.4458258 ] } },
{ "type": "Feature", "properties": { "element": "node", "id": 4961818979, "stop_name": null, "sheltered": false, "trips_7d": null, "seg_id": "forbes-avenue-1305-00", "snap_m": 0.9 }, "geometry": { "type": "Point", "coordinates": [ -79.9460721, 40.4444864 ] } },
{ "type": "Feature", "properties": { "element": "node", "id": 8099075091, "stop_name": "Forbes Ave at Bigelow Blvd", "sheltered": false, "trips_7d": 4775.0, "seg_id": "forbes-avenue-0638-00", "snap_m": 0.7 }, "geometry": { "type": "Point", "coordinates": [ -79.9537449, 40.4430584 ] } },
{ "type": "Feature", "properties": { "element": "node", "id": 8099223559, "stop_name": "Forbes Ave at Atwood St", "sheltered": false, "trips_7d": 2185.0, "seg_id": "atwood-street-0473-12", "snap_m": 0.0 }, "geometry": { "type": "Point", "coordinates": [ -79.9576619, 40.4409754 ] } },
{ "type": "Feature", "properties": { "element": "node", "id": 8234973556, "stop_name": "Fifth Avenue at Morewood Avenue", "sheltered": false, "trips_7d": 770.0, "seg_id": "fifth-avenue-1347-01", "snap_m": 1.2 }, "geometry": { "type": "Point", "coordinates": [ -79.9423474, 40.4474987 ] } },
{ "type": "Feature", "properties": { "element": "node", "id": 8234973557, "stop_name": "Fifth Avenue at North Neville Street", "sheltered": false, "trips_7d": 770.0, "seg_id": "fifth-avenue-1231-01", "snap_m": 1.0 }, "geometry": { "type": "Point", "coordinates": [ -79.9471996, 40.4471462 ] } },
{ "type": "Feature", "properties": { "element": "node", "id": 8234973558, "stop_name": "Fifth Avenue at South Neville St", "sheltered": false, "trips_7d": 901.0, "seg_id": "fifth-avenue-1158-02", "snap_m": 1.0 }, "geometry": { "type": "Point", "coordinates": [ -79.9473606, 40.4469971 ] } },
{ "type": "Feature", "properties": { "element": "node", "id": 8234973559, "stop_name": "Fifth Avenue at S Craig St", "sheltered": false, "trips_7d": 1421.0, "seg_id": "winthrop-street-1078-03", "snap_m": 1.0 }, "geometry": { "type": "Point", "coordinates": [ -79.9496875, 40.4467614 ] } },
{ "type": "Feature", "properties": { "element": "node", "id": 8234973560, "stop_name": "Fifth Avenue at North Craig St", "sheltered": false, "trips_7d": 1290.0, "seg_id": "bayard-street-1067-07", "snap_m": 1.7 }, "geometry": { "type": "Point", "coordinates": [ -79.9488356, 40.4470535 ] } },
{ "type": "Feature", "properties": { "element": "node", "id": 8234973561, "stop_name": "Fifth Ave at Thackeray Ave", "sheltered": false, "trips_7d": 5157.0, "seg_id": "university-place-0529-02", "snap_m": 1.0 }, "geometry": { "type": "Point", "coordinates": [ -79.9565351, 40.4432987 ] } },
{ "type": "Feature", "properties": { "element": "node", "id": 8234973562, "stop_name": "Fifth Avenue opp Thackeray Street", "sheltered": false, "trips_7d": 5157.0, "seg_id": "fifth-avenue-0556-01", "snap_m": 1.4 }, "geometry": { "type": "Point", "coordinates": [ -79.9565669, 40.4430177 ] } },
{ "type": "Feature", "properties": { "element": "node", "id": 8234973563, "stop_name": "Fifth Avenue at Oakland Avenue", "sheltered": false, "trips_7d": 4656.0, "seg_id": "atwood-street-0511-00", "snap_m": 2.2 }, "geometry": { "type": "Point", "coordinates": [ -79.9578312, 40.4420819 ] } },
{ "type": "Feature", "properties": { "element": "node", "id": 8234973566, "stop_name": "Fifth Avenue at Robinson Street", "sheltered": false, "trips_7d": null, "seg_id": "robinson-street-0145-11", "snap_m": 0.8 }, "geometry": { "type": "Point", "coordinates": [ -79.9652411, 40.4377965 ] } },
{ "type": "Feature", "properties": { "element": "node", "id": 8234973568, "stop_name": "Fifth Ave at Robinson St", "sheltered": false, "trips_7d": 4081.0, "seg_id": "robinson-street-0056-02", "snap_m": 0.6 }, "geometry": { "type": "Point", "coordinates": [ -79.9660437, 40.4368374 ] } },
{ "type": "Feature", "properties": { "element": "node", "id": 8644704478, "stop_name": null, "sheltered": false, "trips_7d": 334.0, "seg_id": "baum-boulevard-1220-00", "snap_m": 1.6 }, "geometry": { "type": "Point", "coordinates": [ -79.947536900000017, 40.4543449 ] } },
{ "type": "Feature", "properties": { "element": "node", "id": 8662671506, "stop_name": "Craig St + Centre Ave", "sheltered": false, "trips_7d": 1290.0, "seg_id": "north-craig-street-0963-00", "snap_m": 1.5 }, "geometry": { "type": "Point", "coordinates": [ -79.9518369, 40.4517628 ] } },
{ "type": "Feature", "properties": { "element": "node", "id": 8765677569, "stop_name": "Craig St + Bayard St", "sheltered": false, "trips_7d": 1290.0, "seg_id": "bayard-street-1067-10", "snap_m": 1.0 }, "geometry": { "type": "Point", "coordinates": [ -79.9506003, 40.4497105 ] } },
{ "type": "Feature", "properties": { "element": "node", "id": 8939943981, "stop_name": "Craig St + Bayard St", "sheltered": false, "trips_7d": 1287.0, "seg_id": "north-dithridge-street-0847-01", "snap_m": 0.0 }, "geometry": { "type": "Point", "coordinates": [ -79.9508659, 40.449849 ] } },
{ "type": "Feature", "properties": { "element": "node", "id": 9004897691, "stop_name": "Millvale Ave at Centre", "sheltered": false, "trips_7d": 334.0, "seg_id": "south-millvale-avenue-1227-00", "snap_m": 0.1 }, "geometry": { "type": "Point", "coordinates": [ -79.9474052, 40.4536836 ] } },
{ "type": "Feature", "properties": { "element": "node", "id": 9004897692, "stop_name": "Centre Ave + Melwood Ave", "sheltered": false, "trips_7d": 1486.0, "seg_id": "centre-avenue-1043-00", "snap_m": 0.8 }, "geometry": { "type": "Point", "coordinates": [ -79.9507131, 40.4523456 ] } },
{ "type": "Feature", "properties": { "element": "node", "id": 9004897693, "stop_name": "Craig St + Centre Ave FS", "sheltered": false, "trips_7d": 1287.0, "seg_id": "north-dithridge-street-0847-00", "snap_m": 0.0 }, "geometry": { "type": "Point", "coordinates": [ -79.9518254, 40.4514089 ] } },
{ "type": "Feature", "properties": { "element": "node", "id": 9641485245, "stop_name": "Forbes Ave at Halket St (Magee Hospital)", "sheltered": true, "trips_7d": 5034.0, "seg_id": "forbes-avenue-0302-02", "snap_m": 0.0 }, "geometry": { "type": "Point", "coordinates": [ -79.9613439, 40.438308 ] } },
{ "type": "Feature", "properties": { "element": "node", "id": 9664782668, "stop_name": "Forbes Ave at Craig St", "sheltered": false, "trips_7d": 2200.0, "seg_id": "forbes-avenue-1162-06", "snap_m": 0.9 }, "geometry": { "type": "Point", "coordinates": [ -79.9485734, 40.4445303 ] } },
{ "type": "Feature", "properties": { "element": "node", "id": 9664782669, "stop_name": "Fifth Ave at Brenham St", "sheltered": false, "trips_7d": 4081.0, "seg_id": "service-0032-00", "snap_m": 12.2 }, "geometry": { "type": "Point", "coordinates": [ -79.968541, 40.4365158 ] } },
{ "type": "Feature", "properties": { "element": "node", "id": 9664896324, "stop_name": "Forbes Ave at McKee Pl", "sheltered": false, "trips_7d": 2565.0, "seg_id": "mckee-place-0431-13", "snap_m": 0.0 }, "geometry": { "type": "Point", "coordinates": [ -79.9595011, 40.4396483 ] } },
{ "type": "Feature", "properties": { "element": "node", "id": 9664896325, "stop_name": "Forbes Ave at Bouquet St", "sheltered": false, "trips_7d": 4775.0, "seg_id": "forbes-avenue-0638-03", "snap_m": 0.0 }, "geometry": { "type": "Point", "coordinates": [ -79.9559917, 40.4421762 ] } },
{ "type": "Feature", "properties": { "element": "node", "id": 9664896326, "stop_name": "Forbes Ave opposite Bellefield Ave", "sheltered": true, "trips_7d": 2064.0, "seg_id": "forbes-avenue-0843-05", "snap_m": 0.0 }, "geometry": { "type": "Point", "coordinates": [ -79.9514126, 40.4436386 ] } },
{ "type": "Feature", "properties": { "element": "node", "id": 9675800443, "stop_name": "Boulevard of the Allies at Halket St", "sheltered": false, "trips_7d": null, "seg_id": "halket-street-0415-03", "snap_m": 17.6 }, "geometry": { "type": "Point", "coordinates": [ -79.9585854, 40.4360038 ] } },
{ "type": "Feature", "properties": { "element": "node", "id": 11296506990, "stop_name": "Bryn. Mawr. Rd Stop", "sheltered": true, "trips_7d": 370.0, "seg_id": "centre-avenue-0031-10", "snap_m": 4.2 }, "geometry": { "type": "Point", "coordinates": [ -79.9575043, 40.4491415 ] } },
{ "type": "Feature", "properties": { "element": "node", "id": 11296508242, "stop_name": null, "sheltered": false, "trips_7d": 370.0, "seg_id": "centre-avenue-0348-06", "snap_m": 4.7 }, "geometry": { "type": "Point", "coordinates": [ -79.9554982, 40.4504788 ] } },
{ "type": "Feature", "properties": { "element": "node", "id": 11947757347, "stop_name": null, "sheltered": false, "trips_7d": 370.0, "seg_id": "centre-avenue-0031-01", "snap_m": 1.2 }, "geometry": { "type": "Point", "coordinates": [ -79.9674226, 40.447230500000011 ] } },
{ "type": "Feature", "properties": { "element": "node", "id": 12316123968, "stop_name": "Allequippa St Stop", "sheltered": true, "trips_7d": 370.0, "seg_id": "centre-avenue-0348-02", "snap_m": 2.3 }, "geometry": { "type": "Point", "coordinates": [ -79.9589571, 40.4482534 ] } },
{ "type": "Feature", "properties": { "element": "node", "id": 12540962002, "stop_name": "Fifth Ave opp Clyde St", "sheltered": false, "trips_7d": 901.0, "seg_id": "fifth-avenue-1158-04", "snap_m": 1.2 }, "geometry": { "type": "Point", "coordinates": [ -79.9449483, 40.447168499999982 ] } },
{ "type": "Feature", "properties": { "element": "node", "id": 12540962003, "stop_name": "North Neville St at Fifth Ave", "sheltered": false, "trips_7d": 520.0, "seg_id": "bayard-street-1067-06", "snap_m": 0.9 }, "geometry": { "type": "Point", "coordinates": [ -79.947487, 40.447309 ] } },
{ "type": "Feature", "properties": { "element": "node", "id": 12540962004, "stop_name": "Neville St at Ellsworth Ave NS", "sheltered": false, "trips_7d": 520.0, "seg_id": "fifth-avenue-1231-00", "snap_m": 0.8 }, "geometry": { "type": "Point", "coordinates": [ -79.9475139, 40.4477573 ] } },
{ "type": "Feature", "properties": { "element": "node", "id": 12540962006, "stop_name": "Fifth Ave at Bigelow Blvd (Pitt)", "sheltered": false, "trips_7d": null, "seg_id": "fifth-avenue-0556-00", "snap_m": 3.5 }, "geometry": { "type": "Point", "coordinates": [ -79.9548591, 40.444188599999983 ] } },
{ "type": "Feature", "properties": { "element": "node", "id": 12540962007, "stop_name": "Fifth Ave at University Place", "sheltered": false, "trips_7d": 4777.0, "seg_id": "university-place-0671-00", "snap_m": 1.2 }, "geometry": { "type": "Point", "coordinates": [ -79.9556611, 40.4439153 ] } },
{ "type": "Feature", "properties": { "element": "node", "id": 12540962012, "stop_name": "Fifth Ave at Meyran Ave", "sheltered": false, "trips_7d": null, "seg_id": "fifth-avenue-0342-01", "snap_m": 0.5 }, "geometry": { "type": "Point", "coordinates": [ -79.9591849, 40.4411394 ] } },
{ "type": "Feature", "properties": { "element": "node", "id": 12540962013, "stop_name": "Fifth Ave at McKee Place", "sheltered": false, "trips_7d": 380.0, "seg_id": "fifth-avenue-0342-01", "snap_m": 1.1 }, "geometry": { "type": "Point", "coordinates": [ -79.9598129, 40.440671 ] } },
{ "type": "Feature", "properties": { "element": "node", "id": 12540962014, "stop_name": "Darragh St at Fifth Ave", "sheltered": false, "trips_7d": 380.0, "seg_id": "darragh-street-0246-03", "snap_m": 1.3 }, "geometry": { "type": "Point", "coordinates": [ -79.9604594, 40.4406575 ] } },
{ "type": "Feature", "properties": { "element": "node", "id": 13433564268, "stop_name": "Eckstein Pl at Wadsworth St", "sheltered": false, "trips_7d": 196.0, "seg_id": "sidewalk-0022-00", "snap_m": 5.6 }, "geometry": { "type": "Point", "coordinates": [ -79.9683932, 40.4425452 ] } },
{ "type": "Feature", "properties": { "element": "node", "id": 13433564269, "stop_name": "Eckstein Pl at Wadsworth St", "sheltered": false, "trips_7d": 196.0, "seg_id": "sidewalk-0022-00", "snap_m": 6.0 }, "geometry": { "type": "Point", "coordinates": [ -79.968586, 40.4426731 ] } },
{ "type": "Feature", "properties": { "element": "node", "id": 13433564270, "stop_name": "Wadsworth St at Robinson St", "sheltered": false, "trips_7d": 196.0, "seg_id": "robinson-extension-0042-01", "snap_m": 3.4 }, "geometry": { "type": "Point", "coordinates": [ -79.9664402, 40.4433617 ] } },
{ "type": "Feature", "properties": { "element": "node", "id": 13433564271, "stop_name": "Wadsworth St at Robinson St", "sheltered": false, "trips_7d": 196.0, "seg_id": "allequippa-street-0012-01", "snap_m": 2.5 }, "geometry": { "type": "Point", "coordinates": [ -79.9662004, 40.4432413 ] } },
{ "type": "Feature", "properties": { "element": "node", "id": 13433564272, "stop_name": "Allequippa St at Robinson St", "sheltered": false, "trips_7d": 184.0, "seg_id": "allequippa-street-0001-00", "snap_m": 2.1 }, "geometry": { "type": "Point", "coordinates": [ -79.9658914, 40.4426205 ] } },
{ "type": "Feature", "properties": { "element": "node", "id": 13433564273, "stop_name": "Allequippa St at Outlet St", "sheltered": false, "trips_7d": 184.0, "seg_id": "allequippa-street-0012-03", "snap_m": 2.9 }, "geometry": { "type": "Point", "coordinates": [ -79.9664279, 40.4424304 ] } },
{ "type": "Feature", "properties": { "element": "node", "id": 13433564274, "stop_name": "Allequippa St Opp Darragh St", "sheltered": false, "trips_7d": 184.0, "seg_id": "robinson-extension-0130-09", "snap_m": 1.1 }, "geometry": { "type": "Point", "coordinates": [ -79.9651473, 40.4433956 ] } },
{ "type": "Feature", "properties": { "element": "node", "id": 13433564275, "stop_name": "Allequippa St at Darragh St", "sheltered": false, "trips_7d": 184.0, "seg_id": "allequippa-street-0146-02", "snap_m": 1.3 }, "geometry": { "type": "Point", "coordinates": [ -79.965214100000011, 40.4431303 ] } },
{ "type": "Feature", "properties": { "element": "node", "id": 13433564276, "stop_name": "Robinson St at Allequippa St", "sheltered": false, "trips_7d": 196.0, "seg_id": "allequippa-street-0146-02", "snap_m": 1.8 }, "geometry": { "type": "Point", "coordinates": [ -79.9656195, 40.4428199 ] } },
{ "type": "Feature", "properties": { "element": "node", "id": 13433564277, "stop_name": "Robinson St at Ellers St", "sheltered": false, "trips_7d": 196.0, "seg_id": "robinson-street-0145-01", "snap_m": 3.7 }, "geometry": { "type": "Point", "coordinates": [ -79.9657802, 40.4417644 ] } },
{ "type": "Feature", "properties": { "element": "node", "id": 13433564278, "stop_name": "Robinson St Opp Ellers St", "sheltered": false, "trips_7d": 196.0, "seg_id": "robinson-street-0148-01", "snap_m": 2.9 }, "geometry": { "type": "Point", "coordinates": [ -79.9655478, 40.4416741 ] } },
{ "type": "Feature", "properties": { "element": "node", "id": 13433564279, "stop_name": "Terrace St at Robinson St", "sheltered": false, "trips_7d": 184.0, "seg_id": "terrace-street-0033-02", "snap_m": 2.4 }, "geometry": { "type": "Point", "coordinates": [ -79.9657184, 40.4402385 ] } },
{ "type": "Feature", "properties": { "element": "node", "id": 13433564280, "stop_name": "Robinson St at Terrace St", "sheltered": false, "trips_7d": 196.0, "seg_id": "robinson-street-0145-02", "snap_m": 3.6 }, "geometry": { "type": "Point", "coordinates": [ -79.9656838, 40.440479400000015 ] } },
{ "type": "Feature", "properties": { "element": "node", "id": 13433564281, "stop_name": "Terrace St at Robinson St", "sheltered": false, "trips_7d": 380.0, "seg_id": "terrace-street-0037-04", "snap_m": 1.8 }, "geometry": { "type": "Point", "coordinates": [ -79.965362400000018, 40.440438 ] } },
{ "type": "Feature", "properties": { "element": "node", "id": 13433564282, "stop_name": "Terrace St Opp Dunsseith St", "sheltered": false, "trips_7d": 380.0, "seg_id": "robinson-street-0145-03", "snap_m": 3.2 }, "geometry": { "type": "Point", "coordinates": [ -79.9649545, 40.4403477 ] } },
{ "type": "Feature", "properties": { "element": "node", "id": 13433564283, "stop_name": "Terrace St at Darragh St", "sheltered": false, "trips_7d": 380.0, "seg_id": "robinson-street-0145-04", "snap_m": 3.8 }, "geometry": { "type": "Point", "coordinates": [ -79.9638173, 40.4408876 ] } },
{ "type": "Feature", "properties": { "element": "node", "id": 13433564284, "stop_name": "Terrace St Opp Chesterfield Rd", "sheltered": false, "trips_7d": 380.0, "seg_id": "terrace-street-0037-03", "snap_m": 2.5 }, "geometry": { "type": "Point", "coordinates": [ -79.9638569, 40.4411097 ] } },
{ "type": "Feature", "properties": { "element": "node", "id": 13433564285, "stop_name": "Terrace St at Darragh St", "sheltered": false, "trips_7d": 380.0, "seg_id": "darragh-street-0246-01", "snap_m": 2.7 }, "geometry": { "type": "Point", "coordinates": [ -79.962915, 40.44177 ] } },
{ "type": "Feature", "properties": { "element": "node", "id": 13433564286, "stop_name": "Terrace St at Darragh St", "sheltered": false, "trips_7d": 380.0, "seg_id": "terrace-street-0037-01", "snap_m": 3.8 }, "geometry": { "type": "Point", "coordinates": [ -79.9628359, 40.4421426 ] } },
{ "type": "Feature", "properties": { "element": "node", "id": 13433564287, "stop_name": "Terrace St at Sutherland Dr", "sheltered": false, "trips_7d": 380.0, "seg_id": "o-hara-street-0280-01", "snap_m": 3.6 }, "geometry": { "type": "Point", "coordinates": [ -79.9619039, 40.4430438 ] } },
{ "type": "Feature", "properties": { "element": "node", "id": 13433564288, "stop_name": "Desoto St at O'Hara St", "sheltered": false, "trips_7d": 380.0, "seg_id": "desoto-street-0444-04", "snap_m": 3.2 }, "geometry": { "type": "Point", "coordinates": [ -79.9596741, 40.4431096 ] } },
{ "type": "Feature", "properties": { "element": "node", "id": 13433564289, "stop_name": "Craft Ave at Hamlet Pl", "sheltered": true, "trips_7d": 292.0, "seg_id": "craft-avenue-0224-02", "snap_m": 1.8 }, "geometry": { "type": "Point", "coordinates": [ -79.962195, 40.4362701 ] } },
{ "type": "Feature", "properties": { "element": "node", "id": 13433564290, "stop_name": "Craft Ave at Forbes Ave", "sheltered": true, "trips_7d": 5034.0, "seg_id": "forbes-avenue-0302-00", "snap_m": 1.5 }, "geometry": { "type": "Point", "coordinates": [ -79.9628296, 40.4369882 ] } },
{ "type": "Feature", "properties": { "element": "node", "id": 13433564291, "stop_name": "Halket St at Forbes Ave", "sheltered": true, "trips_7d": 121.0, "seg_id": "coltart-avenue-0391-05", "snap_m": 2.5 }, "geometry": { "type": "Point", "coordinates": [ -79.9611132, 40.4384038 ] } },
{ "type": "Feature", "properties": { "element": "node", "id": 13433564292, "stop_name": "Halket St at Louisa St", "sheltered": false, "trips_7d": 121.0, "seg_id": "mckee-place-0431-02", "snap_m": 1.9 }, "geometry": { "type": "Point", "coordinates": [ -79.9593391, 40.437029 ] } },
{ "type": "Feature", "properties": { "element": "node", "id": 13870055202, "stop_name": "Forbes Avenue at Craig Street", "sheltered": false, "trips_7d": 2200.0, "seg_id": "south-craig-street-1183-00", "snap_m": 0.0 }, "geometry": { "type": "Point", "coordinates": [ -79.9485477, 40.4445241 ] } },
{ "type": "Feature", "properties": { "element": "node", "id": 13870055203, "stop_name": "Forbest Avenue at Schenley Drive", "sheltered": false, "trips_7d": 4775.0, "seg_id": "forbes-avenue-0638-00", "snap_m": 2.6 }, "geometry": { "type": "Point", "coordinates": [ -79.953835, 40.443052 ] } },
{ "type": "Feature", "properties": { "element": "node", "id": 13870055204, "stop_name": "Forbes Avenue opp Craig Street", "sheltered": true, "trips_7d": 2064.0, "seg_id": "forbes-avenue-0843-07", "snap_m": 2.7 }, "geometry": { "type": "Point", "coordinates": [ -79.948893, 40.444327 ] } },
{ "type": "Feature", "properties": { "element": "node", "id": 13870055208, "stop_name": "Forbes Avenue past Morewood Avenue", "sheltered": false, "trips_7d": 2200.0, "seg_id": "forbes-avenue-1383-00", "snap_m": 0.4 }, "geometry": { "type": "Point", "coordinates": [ -79.9436541, 40.444761300000025 ] } },
{ "type": "Feature", "properties": { "element": "node", "id": 13870055210, "stop_name": "Morewood Avenue at Forbes Avenue", "sheltered": false, "trips_7d": 270.0, "seg_id": "morewood-avenue-1433-08", "snap_m": 3.0 }, "geometry": { "type": "Point", "coordinates": [ -79.9426383, 40.4451048 ] } },
{ "type": "Feature", "properties": { "element": "node", "id": 13870055211, "stop_name": "Darragh Street opp Victoria Street", "sheltered": false, "trips_7d": 380.0, "seg_id": "darragh-street-0246-02", "snap_m": 2.1 }, "geometry": { "type": "Point", "coordinates": [ -79.961379, 40.441153 ] } },
{ "type": "Feature", "properties": { "element": "node", "id": 13870055213, "stop_name": "Forbes Avenue at Dithridge Street", "sheltered": false, "trips_7d": 2200.0, "seg_id": "forbes-avenue-1095-00", "snap_m": 4.3 }, "geometry": { "type": "Point", "coordinates": [ -79.949994, 40.444168 ] } },
{ "type": "Feature", "properties": { "element": "node", "id": 13870055218, "stop_name": "Forbes Avenue at Meyran Avenue", "sheltered": false, "trips_7d": 2970.0, "seg_id": "semple-street-0493-03", "snap_m": 1.9 }, "geometry": { "type": "Point", "coordinates": [ -79.958405, 40.440465 ] } },
{ "type": "Feature", "properties": { "element": "node", "id": 13870055219, "stop_name": "Forbes Avenue opp Morewood Avenue", "sheltered": false, "trips_7d": 1794.0, "seg_id": "forbes-avenue-1305-02", "snap_m": 2.3 }, "geometry": { "type": "Point", "coordinates": [ -79.9425056, 40.444423300000011 ] } }
]
}
