{"type":"FeatureCollection","features":[{"id":"0","type":"Feature","properties":{"element":"node","id":392974007,"stop_name":"Craig St at Park Plaza","sheltered":false,"trips_7d":1290.0,"seg_id":"bayard-street-1067-08","snap_m":1.0},"geometry":{"type":"Point","coordinates":[-79.94946,40.44788]}},{"id":"1","type":"Feature","properties":{"element":"node","id":392974201,"stop_name":"Craig St at Fifth Ave","sheltered":true,"trips_7d":1287.0,"seg_id":"north-craig-street-0986-04","snap_m":0.7},"geometry":{"type":"Point","coordinates":[-79.94922,40.44719]}},{"id":"2","type":"Feature","properties":{"element":"node","id":1356087410,"stop_name":"Fifth Ave at University Pl","sheltered":false,"trips_7d":null,"seg_id":"bigelow-boulevard-0637-09","snap_m":1.1},"geometry":{"type":"Point","coordinates":[-79.95471,40.44459]}},{"id":"3","type":"Feature","properties":{"element":"node","id":1778609167,"stop_name":"Fifth Avenue at Morewood Avenue","sheltered":false,"trips_7d":901.0,"seg_id":"fifth-avenue-1158-06","snap_m":0.6},"geometry":{"type":"Point","coordinates":[-79.94253,40.44735]}},{"id":"4","type":"Feature","properties":{"element":"node","id":1784102246,"stop_name":null,"sheltered":false,"trips_7d":1155.0,"seg_id":"centre-avenue-1046-00","snap_m":0.3},"geometry":{"type":"Point","coordinates":[-79.94451,40.45407]}},{"id":"5","type":"Feature","properties":{"element":"node","id":1784102247,"stop_name":null,"sheltered":false,"trips_7d":null,"seg_id":"centre-avenue-1397-00","snap_m":0.9},"geometry":{"type":"Point","coordinates":[-79.9435,40.45437]}},{"id":"6","type":"Feature","properties":{"element":"node","id":1785427182,"stop_name":null,"sheltered":false,"trips_7d":285.0,"seg_id":"amberson-avenue-1540-00","snap_m":2.6},"geometry":{"type":"Point","coordinates":[-79.94087,40.45139]}},{"id":"7","type":"Feature","properties":{"element":"node","id":1786772014,"stop_name":"Neville Ramp + Centre","sheltered":true,"trips_7d":235.0,"seg_id":"centre-avenue-1043-00","snap_m":8.8},"geometry":{"type":"Point","coordinates":[-79.94978,40.45273]}},{"id":"8","type":"Feature","properties":{"element":"node","id":1786772015,"stop_name":"Neville Ramp + Centre FS","sheltered":true,"trips_7d":235.0,"seg_id":"centre-avenue-1043-00","snap_m":11.3},"geometry":{"type":"Point","coordinates":[-79.94964,40.45279]}},{"id":"9","type":"Feature","properties":{"element":"node","id":1812433922,"stop_name":"Centre Ave + Millvale","sheltered":false,"trips_7d":1155.0,"seg_id":"centre-avenue-1046-02","snap_m":0.5},"geometry":{"type":"Point","coordinates":[-79.94751,40.45317]}},{"id":"10","type":"Feature","properties":{"element":"node","id":1812433927,"stop_name":"Centre Ave + Millvale","sheltered":false,"trips_7d":1155.0,"seg_id":"bayard-street-1121-02","snap_m":1.9},"geometry":{"type":"Point","coordinates":[-79.94723,40.45339]}},{"id":"11","type":"Feature","properties":{"element":"node","id":1812433930,"stop_name":"Millvale Ave + Centre","sheltered":true,"trips_7d":331.0,"seg_id":"south-millvale-avenue-1218-00","snap_m":0.1},"geometry":{"type":"Point","coordinates":[-79.9475,40.4534]}},{"id":"12","type":"Feature","properties":{"element":"node","id":1815342336,"stop_name":null,"sheltered":true,"trips_7d":370.0,"seg_id":"north-dithridge-street-0826-02","snap_m":2.7},"geometry":{"type":"Point","coordinates":[-79.95339,40.45138]}},{"id":"13","type":"Feature","properties":{"element":"node","id":1815342341,"stop_name":null,"sheltered":false,"trips_7d":370.0,"seg_id":"centre-avenue-0724-01","snap_m":0.4},"geometry":{"type":"Point","coordinates":[-79.95322,40.4516]}},{"id":"14","type":"Feature","properties":{"element":"node","id":1815342345,"stop_name":"Centre Ave + Craig St","sheltered":true,"trips_7d":370.0,"seg_id":"north-dithridge-street-0847-06","snap_m":0.0},"geometry":{"type":"Point","coordinates":[-79.95214,40.45178]}},{"id":"15","type":"Feature","properties":{"element":"node","id":1815342348,"stop_name":"Centre Ave + Melwood Ave","sheltered":false,"trips_7d":1489.0,"seg_id":"centre-avenue-0948-00","snap_m":0.5},"geometry":{"type":"Point","coordinates":[-79.95099,40.45213]}},{"id":"16","type":"Feature","properties":{"element":"node","id":1815342352,"stop_name":"Centre Ave + Neville St","sheltered":false,"trips_7d":1489.0,"seg_id":"centre-avenue-1046-04","snap_m":0.1},"geometry":{"type":"Point","coordinates":[-79.94978,40.45248]}},{"id":"17","type":"Feature","properties":{"element":"node","id":1824542801,"stop_name":null,"sheltered":false,"trips_7d":null,"seg_id":"forbes-avenue-1162-07","snap_m":0.6},"geometry":{"type":"Point","coordinates":[-79.94876,40.44577]}},{"id":"18","type":"Feature","properties":{"element":"node","id":1835579476,"stop_name":"Center Ave + Craig St NS","sheltered":false,"trips_7d":370.0,"seg_id":"centre-avenue-0724-03","snap_m":1.1},"geometry":{"type":"Point","coordinates":[-79.95171,40.45204]}},{"id":"19","type":"Feature","properties":{"element":"node","id":1835929650,"stop_name":null,"sheltered":false,"trips_7d":285.0,"seg_id":"ellsworth-avenue-1372-06","snap_m":0.0},"geometry":{"type":"Point","coordinates":[-79.94104,40.45122]}},{"id":"20","type":"Feature","properties":{"element":"node","id":1838801466,"stop_name":null,"sheltered":true,"trips_7d":1155.0,"seg_id":"morewood-avenue-1393-00","snap_m":7.1},"geometry":{"type":"Point","coordinates":[-79.94432,40.45425]}},{"id":"21","type":"Feature","properties":{"element":"node","id":1892471692,"stop_name":null,"sheltered":false,"trips_7d":285.0,"seg_id":"ellsworth-avenue-1372-05","snap_m":0.9},"geometry":{"type":"Point","coordinates":[-79.94313,40.4508]}},{"id":"22","type":"Feature","properties":{"element":"node","id":2634336032,"stop_name":"Centre Ave + Neville St","sheltered":false,"trips_7d":1486.0,"seg_id":"bayard-street-1121-04","snap_m":0.1},"geometry":{"type":"Point","coordinates":[-79.9495,40.45272]}},{"id":"23","type":"Feature","properties":{"element":"node","id":3224418048,"stop_name":"Forbes Ave at Morewood Ave (Carnegie Mellon)","sheltered":true,"trips_7d":2200.0,"seg_id":"forbes-avenue-1383-00","snap_m":0.0},"geometry":{"type":"Point","coordinates":[-79.94363,40.44476]}},{"id":"24","type":"Feature","properties":{"element":"node","id":3652076321,"stop_name":"Forbes Ave opposite Morewood Avenue (Carnegie Mellon)","sheltered":true,"trips_7d":1794.0,"seg_id":"forbes-avenue-1305-02","snap_m":0.0},"geometry":{"type":"Point","coordinates":[-79.94249,40.44444]}},{"id":"25","type":"Feature","properties":{"element":"node","id":4301448586,"stop_name":null,"sheltered":false,"trips_7d":157.0,"seg_id":"south-millvale-avenue-1227-00","snap_m":1.9},"geometry":{"type":"Point","coordinates":[-79.94758,40.45446]}},{"id":"26","type":"Feature","properties":{"element":"node","id":4301448587,"stop_name":"Forbes Ave opposite Craig St","sheltered":true,"trips_7d":2064.0,"seg_id":"forbes-avenue-0843-07","snap_m":0.0},"geometry":{"type":"Point","coordinates":[-79.94889,40.4443]}},{"id":"27","type":"Feature","properties":{"element":"node","id":4301448588,"stop_name":"Bellefield Avenue at Fifth Avenue","sheltered":true,"trips_7d":2711.0,"seg_id":"south-bellefield-avenue-0816-00","snap_m":1.2},"geometry":{"type":"Point","coordinates":[-79.95175,40.44633]}},{"id":"28","type":"Feature","properties":{"element":"node","id":4301449475,"stop_name":null,"sheltered":false,"trips_7d":331.0,"seg_id":"baum-boulevard-0823-00","snap_m":4.4},"geometry":{"type":"Point","coordinates":[-79.94778,40.45447]}},{"id":"29","type":"Feature","properties":{"element":"node","id":4301449476,"stop_name":null,"sheltered":false,"trips_7d":null,"seg_id":"winthrop-street-1078-01","snap_m":1.9},"geometry":{"type":"Point","coordinates":[-79.9489,40.44573]}},{"id":"30","type":"Feature","properties":{"element":"node","id":4301449477,"stop_name":"Forbes Ave at Dithridge St","sheltered":false,"trips_7d":2200.0,"seg_id":"forbes-avenue-1095-00","snap_m":0.1},"geometry":{"type":"Point","coordinates":[-79.95005,40.44419]}},{"id":"31","type":"Feature","properties":{"element":"node","id":4301449478,"stop_name":"Fifth Avenue at Desoto Street","sheltered":false,"trips_7d":null,"seg_id":"desoto-street-0444-02","snap_m":1.3},"geometry":{"type":"Point","coordinates":[-79.95783,40.44237]}},{"id":"32","type":"Feature","properties":{"element":"node","id":4301449479,"stop_name":"Fifth Ave at Chesterfield Rd","sheltered":true,"trips_7d":5157.0,"seg_id":"darragh-street-0246-05","snap_m":0.8},"geometry":{"type":"Point","coordinates":[-79.96174,40.43947]}},{"id":"33","type":"Feature","properties":{"element":"node","id":4301449481,"stop_name":"Forbes Ave at Craft Ave","sheltered":true,"trips_7d":5034.0,"seg_id":"forbes-avenue-0302-01","snap_m":2.3},"geometry":{"type":"Point","coordinates":[-79.96287,40.43722]}},{"id":"34","type":"Feature","properties":{"element":"node","id":4301449489,"stop_name":"Fifth Ave at Atwood Station","sheltered":true,"trips_7d":4656.0,"seg_id":"terrace-street-0311-05","snap_m":1.3},"geometry":{"type":"Point","coordinates":[-79.9588,40.4417]}},{"id":"35","type":"Feature","properties":{"element":"node","id":4301449490,"stop_name":"Fifth Ave at Craft Ave (Carlow University)","sheltered":false,"trips_7d":4630.0,"seg_id":"robinson-street-0145-09","snap_m":0.0},"geometry":{"type":"Point","coordinates":[-79.96382,40.43798]}},{"id":"36","type":"Feature","properties":{"element":"node","id":4301449491,"stop_name":"Craft Avenue past Fifth (Dialysis Center)","sheltered":true,"trips_7d":292.0,"seg_id":"fifth-avenue-0178-01","snap_m":0.9},"geometry":{"type":"Point","coordinates":[-79.96374,40.43754]}},{"id":"37","type":"Feature","properties":{"element":"node","id":4301449492,"stop_name":null,"sheltered":false,"trips_7d":292.0,"seg_id":"craft-avenue-0224-02","snap_m":0.4},"geometry":{"type":"Point","coordinates":[-79.9623,40.43638]}},{"id":"38","type":"Feature","properties":{"element":"node","id":4306208120,"stop_name":"Fifth Avenue at Bellefield Avenue","sheltered":false,"trips_7d":2711.0,"seg_id":"fifth-avenue-0750-04","snap_m":0.6},"geometry":{"type":"Point","coordinates":[-79.95202,40.4463]}},{"id":"39","type":"Feature","properties":{"element":"node","id":4306208237,"stop_name":"Fifth Avenue at Bellefield Avenue","sheltered":false,"trips_7d":2577.0,"seg_id":"north-dithridge-street-0899-05","snap_m":2.0},"geometry":{"type":"Point","coordinates":[-79.95164,40.44675]}},{"id":"40","type":"Feature","properties":{"element":"node","id":4378685541,"stop_name":"Fifth Ave at Tennyson Ave","sheltered":true,"trips_7d":5157.0,"seg_id":"bigelow-boulevard-0637-02","snap_m":0.6},"geometry":{"type":"Point","coordinates":[-79.95302,40.44583]}},{"id":"41","type":"Feature","properties":{"element":"node","id":4961818979,"stop_name":null,"sheltered":false,"trips_7d":null,"seg_id":"forbes-avenue-1305-00","snap_m":0.9},"geometry":{"type":"Point","coordinates":[-79.94607,40.44449]}},{"id":"42","type":"Feature","properties":{"element":"node","id":8099075091,"stop_name":"Forbes Ave at Bigelow Blvd","sheltered":false,"trips_7d":4775.0,"seg_id":"forbes-avenue-0638-00","snap_m":0.7},"geometry":{"type":"Point","coordinates":[-79.95374,40.44306]}},{"id":"43","type":"Feature","properties":{"element":"node","id":8099223559,"stop_name":"Forbes Ave at Atwood St","sheltered":false,"trips_7d":2185.0,"seg_id":"atwood-street-0473-12","snap_m":0.0},"geometry":{"type":"Point","coordinates":[-79.95766,40.44098]}},{"id":"44","type":"Feature","properties":{"element":"node","id":8234973556,"stop_name":"Fifth Avenue at Morewood Avenue","sheltered":false,"trips_7d":770.0,"seg_id":"fifth-avenue-1347-01","snap_m":1.2},"geometry":{"type":"Point","coordinates":[-79.94235,40.4475]}},{"id":"45","type":"Feature","properties":{"element":"node","id":8234973557,"stop_name":"Fifth Avenue at North Neville Street","sheltered":false,"trips_7d":770.0,"seg_id":"fifth-avenue-1231-01","snap_m":1.0},"geometry":{"type":"Point","coordinates":[-79.9472,40.44715]}},{"id":"46","type":"Feature","properties":{"element":"node","id":8234973558,"stop_name":"Fifth Avenue at South Neville St","sheltered":false,"trips_7d":901.0,"seg_id":"fifth-avenue-1158-02","snap_m":1.0},"geometry":{"type":"Point","coordinates":[-79.94736,40.447]}},{"id":"47","type":"Feature","properties":{"element":"node","id":8234973559,"stop_name":"Fifth Avenue at S Craig St","sheltered":false,"trips_7d":1421.0,"seg_id":"winthrop-street-1078-03","snap_m":1.0},"geometry":{"type":"Point","coordinates":[-79.94969,40.44676]}},{"id":"48","type":"Feature","properties":{"element":"node","id":8234973560,"stop_name":"Fifth Avenue at North Craig St","sheltered":false,"trips_7d":1290.0,"seg_id":"bayard-street-1067-07","snap_m":1.7},"geometry":{"type":"Point","coordinates":[-79.94884,40.44705]}},{"id":"49","type":"Feature","properties":{"element":"node","id":8234973561,"stop_name":"Fifth Ave at Thackeray Ave","sheltered":false,"trips_7d":5157.0,"seg_id":"university-place-0529-02","snap_m":1.0},"geometry":{"type":"Point","coordinates":[-79.95654,40.4433]}},{"id":"50","type":"Feature","properties":{"element":"node","id":8234973562,"stop_name":"Fifth Avenue opp Thackeray Street","sheltered":false,"trips_7d":5157.0,"seg_id":"fifth-avenue-0556-01","snap_m":1.4},"geometry":{"type":"Point","coordinates":[-79.95657,40.44302]}},{"id":"51","type":"Feature","properties":{"element":"node","id":8234973563,"stop_name":"Fifth Avenue at Oakland Avenue","sheltered":false,"trips_7d":4656.0,"seg_id":"atwood-street-0511-00","snap_m":2.2},"geometry":{"type":"Point","coordinates":[-79.95783,40.44208]}},{"id":"52","type":"Feature","properties":{"element":"node","id":8234973566,"stop_name":"Fifth Avenue at Robinson Street","sheltered":false,"trips_7d":null,"seg_id":"robinson-street-0145-11","snap_m":0.8},"geometry":{"type":"Point","coordinates":[-79.96524,40.4378]}},{"id":"53","type":"Feature","properties":{"element":"node","id":8234973568,"stop_name":"Fifth Ave at Robinson St","sheltered":false,"trips_7d":4081.0,"seg_id":"robinson-street-0056-02","snap_m":0.6},"geometry":{"type":"Point","coordinates":[-79.96604,40.43684]}},{"id":"54","type":"Feature","properties":{"element":"node","id":8644704478,"stop_name":null,"sheltered":false,"trips_7d":334.0,"seg_id":"baum-boulevard-1220-00","snap_m":1.6},"geometry":{"type":"Point","coordinates":[-79.94754,40.45434]}},{"id":"55","type":"Feature","properties":{"element":"node","id":8662671506,"stop_name":"Craig St + Centre Ave","sheltered":false,"trips_7d":1290.0,"seg_id":"north-craig-street-0963-00","snap_m":1.5},"geometry":{"type":"Point","coordinates":[-79.95184,40.45176]}},{"id":"56","type":"Feature","properties":{"element":"node","id":8765677569,"stop_name":"Craig St + Bayard St","sheltered":false,"trips_7d":1290.0,"seg_id":"bayard-street-1067-10","snap_m":1.0},"geometry":{"type":"Point","coordinates":[-79.9506,40.44971]}},{"id":"57","type":"Feature","properties":{"element":"node","id":8939943981,"stop_name":"Craig St + Bayard St","sheltered":false,"trips_7d":1287.0,"seg_id":"north-dithridge-street-0847-01","snap_m":0.0},"geometry":{"type":"Point","coordinates":[-79.95087,40.44985]}},{"id":"58","type":"Feature","properties":{"element":"node","id":9004897691,"stop_name":"Millvale Ave at Centre","sheltered":false,"trips_7d":334.0,"seg_id":"south-millvale-avenue-1227-00","snap_m":0.1},"geometry":{"type":"Point","coordinates":[-79.94741,40.45368]}},{"id":"59","type":"Feature","properties":{"element":"node","id":9004897692,"stop_name":"Centre Ave + Melwood Ave","sheltered":false,"trips_7d":1486.0,"seg_id":"centre-avenue-1043-00","snap_m":0.8},"geometry":{"type":"Point","coordinates":[-79.95071,40.45235]}},{"id":"60","type":"Feature","properties":{"element":"node","id":9004897693,"stop_name":"Craig St + Centre Ave FS","sheltered":false,"trips_7d":1287.0,"seg_id":"north-dithridge-street-0847-00","snap_m":0.0},"geometry":{"type":"Point","coordinates":[-79.95183,40.45141]}},{"id":"61","type":"Feature","properties":{"element":"node","id":9641485245,"stop_name":"Forbes Ave at Halket St (Magee Hospital)","sheltered":true,"trips_7d":5034.0,"seg_id":"forbes-avenue-0302-02","snap_m":0.0},"geometry":{"type":"Point","coordinates":[-79.96134,40.43831]}},{"id":"62","type":"Feature","properties":{"element":"node","id":9664782668,"stop_name":"Forbes Ave at Craig St","sheltered":false,"trips_7d":2200.0,"seg_id":"forbes-avenue-1162-06","snap_m":0.9},"geometry":{"type":"Point","coordinates":[-79.94857,40.44453]}},{"id":"63","type":"Feature","properties":{"element":"node","id":9664782669,"stop_name":"Fifth Ave at Brenham St","sheltered":false,"trips_7d":4081.0,"seg_id":"service-0032-00","snap_m":12.2},"geometry":{"type":"Point","coordinates":[-79.96854,40.43652]}},{"id":"64","type":"Feature","properties":{"element":"node","id":9664896324,"stop_name":"Forbes Ave at McKee Pl","sheltered":false,"trips_7d":2565.0,"seg_id":"mckee-place-0431-13","snap_m":0.0},"geometry":{"type":"Point","coordinates":[-79.9595,40.43965]}},{"id":"65","type":"Feature","properties":{"element":"node","id":9664896325,"stop_name":"Forbes Ave at Bouquet St","sheltered":false,"trips_7d":4775.0,"seg_id":"forbes-avenue-0638-03","snap_m":0.0},"geometry":{"type":"Point","coordinates":[-79.95599,40.44218]}},{"id":"66","type":"Feature","properties":{"element":"node","id":9664896326,"stop_name":"Forbes Ave opposite Bellefield Ave","sheltered":true,"trips_7d":2064.0,"seg_id":"forbes-avenue-0843-05","snap_m":0.0},"geometry":{"type":"Point","coordinates":[-79.95141,40.44364]}},{"id":"67","type":"Feature","properties":{"element":"node","id":9675800443,"stop_name":"Boulevard of the Allies at Halket St","sheltered":false,"trips_7d":null,"seg_id":"halket-street-0415-03","snap_m":17.6},"geometry":{"type":"Point","coordinates":[-79.95859,40.436]}},{"id":"68","type":"Feature","properties":{"element":"node","id":11296506990,"stop_name":"Bryn. Mawr. Rd Stop","sheltered":true,"trips_7d":370.0,"seg_id":"centre-avenue-0031-10","snap_m":4.2},"geometry":{"type":"Point","coordinates":[-79.9575,40.44914]}},{"id":"69","type":"Feature","properties":{"element":"node","id":11296508242,"stop_name":null,"sheltered":false,"trips_7d":370.0,"seg_id":"centre-avenue-0348-06","snap_m":4.7},"geometry":{"type":"Point","coordinates":[-79.9555,40.45048]}},{"id":"70","type":"Feature","properties":{"element":"node","id":11947757347,"stop_name":null,"sheltered":false,"trips_7d":370.0,"seg_id":"centre-avenue-0031-01","snap_m":1.2},"geometry":{"type":"Point","coordinates":[-79.96742,40.44723]}},{"id":"71","type":"Feature","properties":{"element":"node","id":12316123968,"stop_name":"Allequippa St Stop","sheltered":true,"trips_7d":370.0,"seg_id":"centre-avenue-0348-02","snap_m":2.3},"geometry":{"type":"Point","coordinates":[-79.95896,40.44825]}},{"id":"72","type":"Feature","properties":{"element":"node","id":12540962002,"stop_name":"Fifth Ave opp Clyde St","sheltered":false,"trips_7d":901.0,"seg_id":"fifth-avenue-1158-04","snap_m":1.2},"geometry":{"type":"Point","coordinates":[-79.94495,40.44717]}},{"id":"73","type":"Feature","properties":{"element":"node","id":12540962003,"stop_name":"North Neville St at Fifth Ave","sheltered":false,"trips_7d":520.0,"seg_id":"bayard-street-1067-06","snap_m":0.9},"geometry":{"type":"Point","coordinates":[-79.94749,40.44731]}},{"id":"74","type":"Feature","properties":{"element":"node","id":12540962004,"stop_name":"Neville St at Ellsworth Ave NS","sheltered":false,"trips_7d":520.0,"seg_id":"fifth-avenue-1231-00","snap_m":0.8},"geometry":{"type":"Point","coordinates":[-79.94751,40.44776]}},{"id":"75","type":"Feature","properties":{"element":"node","id":12540962006,"stop_name":"Fifth Ave at Bigelow Blvd (Pitt)","sheltered":false,"trips_7d":null,"seg_id":"fifth-avenue-0556-00","snap_m":3.5},"geometry":{"type":"Point","coordinates":[-79.95486,40.44419]}},{"id":"76","type":"Feature","properties":{"element":"node","id":12540962007,"stop_name":"Fifth Ave at University Place","sheltered":false,"trips_7d":4777.0,"seg_id":"university-place-0671-00","snap_m":1.2},"geometry":{"type":"Point","coordinates":[-79.95566,40.44392]}},{"id":"77","type":"Feature","properties":{"element":"node","id":12540962012,"stop_name":"Fifth Ave at Meyran Ave","sheltered":false,"trips_7d":null,"seg_id":"fifth-avenue-0342-01","snap_m":0.5},"geometry":{"type":"Point","coordinates":[-79.95918,40.44114]}},{"id":"78","type":"Feature","properties":{"element":"node","id":12540962013,"stop_name":"Fifth Ave at McKee Place","sheltered":false,"trips_7d":380.0,"seg_id":"fifth-avenue-0342-01","snap_m":1.1},"geometry":{"type":"Point","coordinates":[-79.95981,40.44067]}},{"id":"79","type":"Feature","properties":{"element":"node","id":12540962014,"stop_name":"Darragh St at Fifth Ave","sheltered":false,"trips_7d":380.0,"seg_id":"darragh-street-0246-03","snap_m":1.3},"geometry":{"type":"Point","coordinates":[-79.96046,40.44066]}},{"id":"80","type":"Feature","properties":{"element":"node","id":13433564268,"stop_name":"Eckstein Pl at Wadsworth St","sheltered":false,"trips_7d":196.0,"seg_id":"sidewalk-0022-00","snap_m":5.6},"geometry":{"type":"Point","coordinates":[-79.96839,40.44255]}},{"id":"81","type":"Feature","properties":{"element":"node","id":13433564269,"stop_name":"Eckstein Pl at Wadsworth St","sheltered":false,"trips_7d":196.0,"seg_id":"sidewalk-0022-00","snap_m":6.0},"geometry":{"type":"Point","coordinates":[-79.96859,40.44267]}},{"id":"82","type":"Feature","properties":{"element":"node","id":13433564270,"stop_name":"Wadsworth St at Robinson St","sheltered":false,"trips_7d":196.0,"seg_id":"robinson-extension-0042-01","snap_m":3.4},"geometry":{"type":"Point","coordinates":[-79.96644,40.44336]}},{"id":"83","type":"Feature","properties":{"element":"node","id":13433564271,"stop_name":"Wadsworth St at Robinson St","sheltered":false,"trips_7d":196.0,"seg_id":"allequippa-street-0012-01","snap_m":2.5},"geometry":{"type":"Point","coordinates":[-79.9662,40.44324]}},{"id":"84","type":"Feature","properties":{"element":"node","id":13433564272,"stop_name":"Allequippa St at Robinson St","sheltered":false,"trips_7d":184.0,"seg_id":"allequippa-street-0001-00","snap_m":2.1},"geometry":{"type":"Point","coordinates":[-79.96589,40.44262]}},{"id":"85","type":"Feature","properties":{"element":"node","id":13433564273,"stop_name":"Allequippa St at Outlet St","sheltered":false,"trips_7d":184.0,"seg_id":"allequippa-street-0012-03","snap_m":2.9},"geometry":{"type":"Point","coordinates":[-79.96643,40.44243]}},{"id":"86","type":"Feature","properties":{"element":"node","id":13433564274,"stop_name":"Allequippa St Opp Darragh St","sheltered":false,"trips_7d":184.0,"seg_id":"robinson-extension-0130-09","snap_m":1.1},"geometry":{"type":"Point","coordinates":[-79.96515,40.4434]}},{"id":"87","type":"Feature","properties":{"element":"node","id":13433564275,"stop_name":"Allequippa St at Darragh St","sheltered":false,"trips_7d":184.0,"seg_id":"allequippa-street-0146-02","snap_m":1.3},"geometry":{"type":"Point","coordinates":[-79.96521,40.44313]}},{"id":"88","type":"Feature","properties":{"element":"node","id":13433564276,"stop_name":"Robinson St at Allequippa St","sheltered":false,"trips_7d":196.0,"seg_id":"allequippa-street-0146-02","snap_m":1.8},"geometry":{"type":"Point","coordinates":[-79.96562,40.44282]}},{"id":"89","type":"Feature","properties":{"element":"node","id":13433564277,"stop_name":"Robinson St at Ellers St","sheltered":false,"trips_7d":196.0,"seg_id":"robinson-street-0145-01","snap_m":3.7},"geometry":{"type":"Point","coordinates":[-79.96578,40.44176]}},{"id":"90","type":"Feature","properties":{"element":"node","id":13433564278,"stop_name":"Robinson St Opp Ellers St","sheltered":false,"trips_7d":196.0,"seg_id":"robinson-street-0148-01","snap_m":2.9},"geometry":{"type":"Point","coordinates":[-79.96555,40.44167]}},{"id":"91","type":"Feature","properties":{"element":"node","id":13433564279,"stop_name":"Terrace St at Robinson St","sheltered":false,"trips_7d":184.0,"seg_id":"terrace-street-0033-02","snap_m":2.4},"geometry":{"type":"Point","coordinates":[-79.96572,40.44024]}},{"id":"92","type":"Feature","properties":{"element":"node","id":13433564280,"stop_name":"Robinson St at Terrace St","sheltered":false,"trips_7d":196.0,"seg_id":"robinson-street-0145-02","snap_m":3.6},"geometry":{"type":"Point","coordinates":[-79.96568,40.44048]}},{"id":"93","type":"Feature","properties":{"element":"node","id":13433564281,"stop_name":"Terrace St at Robinson St","sheltered":false,"trips_7d":380.0,"seg_id":"terrace-street-0037-04","snap_m":1.8},"geometry":{"type":"Point","coordinates":[-79.96536,40.44044]}},{"id":"94","type":"Feature","properties":{"element":"node","id":13433564282,"stop_name":"Terrace St Opp Dunsseith St","sheltered":false,"trips_7d":380.0,"seg_id":"robinson-street-0145-03","snap_m":3.2},"geometry":{"type":"Point","coordinates":[-79.96495,40.44035]}},{"id":"95","type":"Feature","properties":{"element":"node","id":13433564283,"stop_name":"Terrace St at Darragh St","sheltered":false,"trips_7d":380.0,"seg_id":"robinson-street-0145-04","snap_m":3.8},"geometry":{"type":"Point","coordinates":[-79.96382,40.44089]}},{"id":"96","type":"Feature","properties":{"element":"node","id":13433564284,"stop_name":"Terrace St Opp Chesterfield Rd","sheltered":false,"trips_7d":380.0,"seg_id":"terrace-street-0037-03","snap_m":2.5},"geometry":{"type":"Point","coordinates":[-79.96386,40.44111]}},{"id":"97","type":"Feature","properties":{"element":"node","id":13433564285,"stop_name":"Terrace St at Darragh St","sheltered":false,"trips_7d":380.0,"seg_id":"darragh-street-0246-01","snap_m":2.7},"geometry":{"type":"Point","coordinates":[-79.96291,40.44177]}},{"id":"98","type":"Feature","properties":{"element":"node","id":13433564286,"stop_name":"Terrace St at Darragh St","sheltered":false,"trips_7d":380.0,"seg_id":"terrace-street-0037-01","snap_m":3.8},"geometry":{"type":"Point","coordinates":[-79.96284,40.44214]}},{"id":"99","type":"Feature","properties":{"element":"node","id":13433564287,"stop_name":"Terrace St at Sutherland Dr","sheltered":false,"trips_7d":380.0,"seg_id":"o-hara-street-0280-01","snap_m":3.6},"geometry":{"type":"Point","coordinates":[-79.9619,40.44304]}},{"id":"100","type":"Feature","properties":{"element":"node","id":13433564288,"stop_name":"Desoto St at O'Hara St","sheltered":false,"trips_7d":380.0,"seg_id":"desoto-street-0444-04","snap_m":3.2},"geometry":{"type":"Point","coordinates":[-79.95967,40.44311]}},{"id":"101","type":"Feature","properties":{"element":"node","id":13433564289,"stop_name":"Craft Ave at Hamlet Pl","sheltered":true,"trips_7d":292.0,"seg_id":"craft-avenue-0224-02","snap_m":1.8},"geometry":{"type":"Point","coordinates":[-79.96219,40.43627]}},{"id":"102","type":"Feature","properties":{"element":"node","id":13433564290,"stop_name":"Craft Ave at Forbes Ave","sheltered":true,"trips_7d":5034.0,"seg_id":"forbes-avenue-0302-00","snap_m":1.5},"geometry":{"type":"Point","coordinates":[-79.96283,40.43699]}},{"id":"103","type":"Feature","properties":{"element":"node","id":13433564291,"stop_name":"Halket St at Forbes Ave","sheltered":true,"trips_7d":121.0,"seg_id":"coltart-avenue-0391-05","snap_m":2.5},"geometry":{"type":"Point","coordinates":[-79.96111,40.4384]}},{"id":"104","type":"Feature","properties":{"element":"node","id":13433564292,"stop_name":"Halket St at Louisa St","sheltered":false,"trips_7d":121.0,"seg_id":"mckee-place-0431-02","snap_m":1.9},"geometry":{"type":"Point","coordinates":[-79.95934,40.43703]}},{"id":"105","type":"Feature","properties":{"element":"node","id":13870055202,"stop_name":"Forbes Avenue at Craig Street","sheltered":false,"trips_7d":2200.0,"seg_id":"south-craig-street-1183-00","snap_m":0.0},"geometry":{"type":"Point","coordinates":[-79.94855,40.44452]}},{"id":"106","type":"Feature","properties":{"element":"node","id":13870055203,"stop_name":"Forbest Avenue at Schenley Drive","sheltered":false,"trips_7d":4775.0,"seg_id":"forbes-avenue-0638-00","snap_m":2.6},"geometry":{"type":"Point","coordinates":[-79.95383,40.44305]}},{"id":"107","type":"Feature","properties":{"element":"node","id":13870055204,"stop_name":"Forbes Avenue opp Craig Street","sheltered":true,"trips_7d":2064.0,"seg_id":"forbes-avenue-0843-07","snap_m":2.7},"geometry":{"type":"Point","coordinates":[-79.94889,40.44433]}},{"id":"108","type":"Feature","properties":{"element":"node","id":13870055208,"stop_name":"Forbes Avenue past Morewood Avenue","sheltered":false,"trips_7d":2200.0,"seg_id":"forbes-avenue-1383-00","snap_m":0.4},"geometry":{"type":"Point","coordinates":[-79.94365,40.44476]}},{"id":"109","type":"Feature","properties":{"element":"node","id":13870055210,"stop_name":"Morewood Avenue at Forbes Avenue","sheltered":false,"trips_7d":270.0,"seg_id":"morewood-avenue-1433-08","snap_m":3.0},"geometry":{"type":"Point","coordinates":[-79.94264,40.4451]}},{"id":"110","type":"Feature","properties":{"element":"node","id":13870055211,"stop_name":"Darragh Street opp Victoria Street","sheltered":false,"trips_7d":380.0,"seg_id":"darragh-street-0246-02","snap_m":2.1},"geometry":{"type":"Point","coordinates":[-79.96138,40.44115]}},{"id":"111","type":"Feature","properties":{"element":"node","id":13870055213,"stop_name":"Forbes Avenue at Dithridge Street","sheltered":false,"trips_7d":2200.0,"seg_id":"forbes-avenue-1095-00","snap_m":4.3},"geometry":{"type":"Point","coordinates":[-79.94999,40.44417]}},{"id":"112","type":"Feature","properties":{"element":"node","id":13870055218,"stop_name":"Forbes Avenue at Meyran Avenue","sheltered":false,"trips_7d":2970.0,"seg_id":"semple-street-0493-03","snap_m":1.9},"geometry":{"type":"Point","coordinates":[-79.9584,40.44047]}},{"id":"113","type":"Feature","properties":{"element":"node","id":13870055219,"stop_name":"Forbes Avenue opp Morewood Avenue","sheltered":false,"trips_7d":1794.0,"seg_id":"forbes-avenue-1305-02","snap_m":2.3},"geometry":{"type":"Point","coordinates":[-79.94251,40.44442]}}]}